LEMUR-2-FINNIAN         
1 66782U 25276DX  26160.94406426  .00006420  00000+0  51645-3 0  9996
2 66782  97.5265 232.1669 0008673 110.6610 249.5545 15.00285972 18915
LEMUR-2-STARLIGHT       
1 66783U 25276DY  26161.16099992  .00005185  00000+0  43186-3 0  9996
2 66783  97.5278 232.0392 0015382 147.8197 212.3968 14.98970826 29148
LEMUR-2-TARTIFLETTE     
1 66784U 25276DZ  26161.42662669  .00005907  00000+0  49112-3 0  9990
2 66784  97.5281 232.3011 0014025 153.1363 207.0590 14.99000511 29184
LEMUR-2-VUKASIN         
1 66785U 25276EA  26161.15933459  .00005551  00000+0  44733-3 0  9998
2 66785  97.5312 232.3227 0006306 140.7004 219.4679 15.00290014 29093
LEMUR-2-HOTSPUR-TOM     
1 66786U 25276EB  26160.95136228  .00006615  00000+0  55096-3 0  9991
2 66786  97.5259 231.8257 0015398 149.5889 210.6230 14.98871778 29049
LEMUR-2-MYRA            
1 66787U 25276EC  26161.45698399  .00006119  00000+0  49332-3 0  9995
2 66787  97.5221 232.5594 0015789 163.7951 196.3781 15.00151363 29207
LEMUR-2 FIKRETDENGIZ    
1 67363U 26004A   26161.47834365  .00003933  00000+0  43116-3 0  9998
2 67363  97.8012 160.1398 0009549 152.1568 208.0161 14.88277183 22288
TWILIGHT-1 OBJECT B     
1 67364U 26004B   26160.96196750  .00001615  00000+0  18327-3 0  9992
2 67364  97.8057 159.6496 0009491 145.1668 215.0171 14.87678243 22212
LEMUR-2-MARIO-SOUSA     
1 67365U 26004C   26161.46280022  .00004033  00000+0  43998-3 0  9994
2 67365  97.7988 160.1208 0009125 152.9896 207.1797 14.88459727 22295
LEMUR-2-SONNENBLUME     
1 67367U 26004E   26161.25864010  .00002416  00000+0  26721-3 0  9996
2 67367  97.7983 159.9071 0008597 155.3603 204.8026 14.88280271 22263
LEMUR-2-WOBLER          
1 67368U 26004F   26161.25303719  .00003315  00000+0  36270-3 0  9990
2 67368  97.8037 160.0167 0009035 145.2960 214.8848 14.88469903 22260
LEMUR-2-GRAM-E-SUE      
1 67370U 26004H   26161.31073282  .00001795  00000+0  19927-3 0  9999
2 67370  97.7967 159.9731 0007716 155.5650 204.5934 14.88440652 22275
LEMUR-2-KATIE           
1 67387U 26004AA  26161.50672036  .00003184  00000+0  33581-3 0  9996
2 67387  97.8034 160.6034 0004727 106.8048 253.3688 14.90007477 22313
LEMUR-2-HCS-BAZUS       
1 67388U 26004AB  26161.50583289  .00003856  00000+0  40543-3 0  9990
2 67388  97.8021 160.5844 0004300 102.2399 257.9300 14.90007283 22310
