OBJECT_NAME,OBJECT_ID,EPOCH,MEAN_MOTION,ECCENTRICITY,INCLINATION,RA_OF_ASC_NODE,ARG_OF_PERICENTER,MEAN_ANOMALY,EPHEMERIS_TYPE,CLASSIFICATION_TYPE,NORAD_CAT_ID,ELEMENT_SET_NO,REV_AT_EPOCH,BSTAR,MEAN_MOTION_DOT,MEAN_MOTION_DDOT
LEMUR-2-FINNIAN,2025-276DX,2026-06-09T22:39:27.152064,15.00285972,.00086731,97.5265,232.1669,110.6610,249.5545,0,U,66782,999,1891,.51645436E-3,.642E-4,0
LEMUR-2-STARLIGHT,2025-276DY,2026-06-10T03:51:50.393088,14.98970826,.0015382,97.5278,232.0392,147.8197,212.3968,0,U,66783,999,2914,.43186E-3,.5185E-4,0
LEMUR-2-TARTIFLETTE,2025-276DZ,2026-06-10T10:14:20.546016,14.99000511,.0014025,97.5281,232.3011,153.1363,207.0590,0,U,66784,999,2918,.49112E-3,.5907E-4,0
LEMUR-2-VUKASIN,2025-276EA,2026-06-10T03:49:26.508576,15.00290014,.0006306,97.5312,232.3227,140.7004,219.4679,0,U,66785,999,2909,.44733E-3,.5551E-4,0
LEMUR-2-HOTSPUR-TOM,2025-276EB,2026-06-09T22:49:57.700992,14.98871778,.00153985,97.5259,231.8257,149.5889,210.6230,0,U,66786,999,2904,.55095517E-3,.6615E-4,0
LEMUR-2-MYRA,2025-276EC,2026-06-10T10:58:03.416736,15.00151363,.0015789,97.5221,232.5594,163.7951,196.3781,0,U,66787,999,2920,.49332E-3,.6119E-4,0
LEMUR-2 FIKRETDENGIZ,2026-004A,2026-06-10T11:28:48.891360,14.88277183,.0009549,97.8012,160.1398,152.1568,208.0161,0,U,67363,999,2228,.43116E-3,.3933E-4,0
TWILIGHT-1 OBJECT B,2026-004B,2026-06-09T23:05:13.992000,14.87678243,.00094915,97.8057,159.6496,145.1668,215.0171,0,U,67364,999,2221,.18326723E-3,.1615E-4,0
LEMUR-2-MARIO-SOUSA,2026-004C,2026-06-10T11:06:25.939008,14.88459727,.0009125,97.7988,160.1208,152.9896,207.1797,0,U,67365,999,2229,.43998E-3,.4033E-4,0
LEMUR-2-SONNENBLUME,2026-004E,2026-06-10T06:12:26.504640,14.88280271,.0008597,97.7983,159.9071,155.3603,204.8026,0,U,67367,999,2226,.26721E-3,.2416E-4,0
LEMUR-2-WOBLER,2026-004F,2026-06-10T06:04:22.413216,14.88469903,.0009035,97.8037,160.0167,145.2960,214.8848,0,U,67368,999,2226,.3627E-3,.3315E-4,0
LEMUR-2-GRAM-E-SUE,2026-004H,2026-06-10T07:27:27.315648,14.88440652,.0007716,97.7967,159.9731,155.5650,204.5934,0,U,67370,999,2227,.19927E-3,.1795E-4,0
LEMUR-2-KATIE,2026-004AA,2026-06-10T12:09:40.639104,14.90007477,.0004727,97.8034,160.6034,106.8048,253.3688,0,U,67387,999,2231,.33581E-3,.3184E-4,0
LEMUR-2-HCS-BAZUS,2026-004AB,2026-06-10T12:08:23.961696,14.90007283,.00043,97.8021,160.5844,102.2399,257.9300,0,U,67388,999,2231,.40543E-3,.3856E-4,0
